[{"OBJECT_NAME":"CYGFM01","OBJECT_ID":"2016-078D","EPOCH":"2026-03-09T17:27:38.414880","MEAN_MOTION":15.52629701,"ECCENTRICITY":0.00068514,"INCLINATION":34.9401,"RA_OF_ASC_NODE":198.8185,"ARG_OF_PERICENTER":277.8179,"MEAN_ANOMALY":82.1766,"EPHEMERIS_TYPE":0,"CLASSIFICATION_TYPE":"U","NORAD_CAT_ID":41887,"ELEMENT_SET_NO":999,"REV_AT_EPOCH":51321,"BSTAR":0.00043964637,"MEAN_MOTION_DOT":0.00028005,"MEAN_MOTION_DDOT":0},{"OBJECT_NAME":"STARLINK-1892","OBJECT_ID":"2020-074E","EPOCH":"2026-03-09T22:16:43.903488","MEAN_MOTION":15.50597372,"ECCENTRICITY":0.0004541,"INCLINATION":53.0467,"RA_OF_ASC_NODE":292.3712,"ARG_OF_PERICENTER":97.7841,"MEAN_ANOMALY":262.3683,"EPHEMERIS_TYPE":0,"CLASSIFICATION_TYPE":"U","NORAD_CAT_ID":46743,"ELEMENT_SET_NO":999,"REV_AT_EPOCH":29711,"BSTAR":0.0020777794,"MEAN_MOTION_DOT":0.0012244,"MEAN_MOTION_DDOT":0}]
